{
  "type": "FeatureCollection",
  "features": [
    {
      "type": "Feature",
      "properties": {
        "norad_id": 41773,
        "name": "SKYSAT-C2",
        "group": "resource",
        "lat": -48.68586850734242,
        "lon": 30.435406594764583,
        "alt_km": 459.0337881245532,
        "timestamp": "2025-12-24T07:45:05.856296+00:00",
        "meta_object_name": "SKYSAT-C2",
        "meta_object_id": "2016-058D",
        "meta_epoch": "2025-12-23T13:13:16.589280",
        "meta_mean_motion": 15.37504356,
        "meta_eccentricity": 0.00029472,
        "meta_inclination": 97.0347,
        "meta_ra_of_asc_node": 21.6195,
        "meta_arg_of_pericenter": 2.412,
        "meta_mean_anomaly": 357.7139,
        "meta_ephemeris_type": 0,
        "meta_classification_type": "U",
        "meta_norad_cat_id": 41773,
        "meta_element_set_no": 999,
        "meta_rev_at_epoch": 51802,
        "meta_bstar": 0.00033388131,
        "meta_mean_motion_dot": 0.00012212,
        "meta_mean_motion_ddot": 0,
        "tle_line1": "1 41773U 16058D   25357.55088645  .00012212  00000+0  33388-3 0  9990",
        "tle_line2": "2 41773  97.0347  21.6195 0002947   2.4120 357.7139 15.37504356518029"
      },
      "geometry": {
        "type": "Point",
        "coordinates": [
          30.435406594764583,
          -48.68586850734242
        ]
      }
    },
    {
      "type": "Feature",
      "properties": {
        "norad_id": 41774,
        "name": "SKYSAT-C3",
        "group": "resource",
        "lat": 77.16428660799649,
        "lon": -0.7223012785832662,
        "alt_km": 423.4374788372743,
        "timestamp": "2025-12-24T07:45:05.856306+00:00",
        "meta_object_name": "SKYSAT-C3",
        "meta_object_id": "2016-058E",
        "meta_epoch": "2025-12-23T20:31:39.995328",
        "meta_mean_motion": 15.44779636,
        "meta_eccentricity": 0.00021217,
        "meta_inclination": 96.928,
        "meta_ra_of_asc_node": 31.0851,
        "meta_arg_of_pericenter": 105.9441,
        "meta_mean_anomaly": 254.2042,
        "meta_ephemeris_type": 0,
        "meta_classification_type": "U",
        "meta_norad_cat_id": 41774,
        "meta_element_set_no": 999,
        "meta_rev_at_epoch": 51897,
        "meta_bstar": 0.00040043299,
        "meta_mean_motion_dot": 0.00018677,
        "meta_mean_motion_ddot": 0,
        "tle_line1": "1 41774U 16058E   25357.85532402  .00018677  00000+0  40043-3 0  9996",
        "tle_line2": "2 41774  96.9280  31.0851 0002121 105.9441 254.2042 15.44779636518978"
      },
      "geometry": {
        "type": "Point",
        "coordinates": [
          -0.7223012785832662,
          77.16428660799649
        ]
      }
    },
    {
      "type": "Feature",
      "properties": {
        "norad_id": 41785,
        "name": "ALSAT 1B",
        "group": "resource",
        "lat": 20.5116376645041,
        "lon": -167.45576164463637,
        "alt_km": 654.1879701173648,
        "timestamp": "2025-12-24T07:45:05.856316+00:00",
        "meta_object_name": "ALSAT 1B",
        "meta_object_id": "2016-059C",
        "meta_epoch": "2025-12-23T22:52:31.126656",
        "meta_mean_motion": 14.72087789,
        "meta_eccentricity": 0.00107628,
        "meta_inclination": 97.7805,
        "meta_ra_of_asc_node": 9.2583,
        "meta_arg_of_pericenter": 72.0484,
        "meta_mean_anomaly": 288.1897,
        "meta_ephemeris_type": 0,
        "meta_classification_type": "U",
        "meta_norad_cat_id": 41785,
        "meta_element_set_no": 999,
        "meta_rev_at_epoch": 49479,
        "meta_bstar": 0.00013322458,
        "meta_mean_motion_dot": 7.91e-06,
        "meta_mean_motion_ddot": 0,
        "tle_line1": "1 41785U 16059C   25357.95313804  .00000791  00000+0  13322-3 0  9991",
        "tle_line2": "2 41785  97.7805   9.2583 0010762  72.0484 288.1897 14.72087789494790"
      },
      "geometry": {
        "type": "Point",
        "coordinates": [
          -167.45576164463637,
          20.5116376645041
        ]
      }
    },
    {
      "type": "Feature",
      "properties": {
        "norad_id": 41787,
        "name": "PATHFINDER 1",
        "group": "resource",
        "lat": 39.301269224753185,
        "lon": -5.894583566514206,
        "alt_km": 645.7911510433787,
        "timestamp": "2025-12-24T07:45:05.856325+00:00",
        "meta_object_name": "PATHFINDER 1",
        "meta_object_id": "2016-059E",
        "meta_epoch": "2025-12-23T23:23:20.655168",
        "meta_mean_motion": 14.67340059,
        "meta_eccentricity": 0.00296638,
        "meta_inclination": 97.8138,
        "meta_ra_of_asc_node": 0.2268,
        "meta_arg_of_pericenter": 46.9323,
        "meta_mean_anomaly": 313.4358,
        "meta_ephemeris_type": 0,
        "meta_classification_type": "U",
        "meta_norad_cat_id": 41787,
        "meta_element_set_no": 999,
        "meta_rev_at_epoch": 49401,
        "meta_bstar": 0.00014582965,
        "meta_mean_motion_dot": 7.82e-06,
        "meta_mean_motion_ddot": 0,
        "tle_line1": "1 41787U 16059E   25357.97454462  .00000782  00000+0  14583-3 0  9991",
        "tle_line2": "2 41787  97.8138   0.2268 0029663  46.9323 313.4358 14.67340059494010"
      },
      "geometry": {
        "type": "Point",
        "coordinates": [
          -5.894583566514206,
          39.301269224753185
        ]
      }
    },
    {
      "type": "Feature",
      "properties": {
        "norad_id": 41790,
        "name": "SCATSAT 1",
        "group": "resource",
        "lat": 22.23616587835391,
        "lon": -121.50630986644185,
        "alt_km": 615.9599822937425,
        "timestamp": "2025-12-24T07:45:05.856335+00:00",
        "meta_object_name": "SCATSAT 1",
        "meta_object_id": "2016-059H",
        "meta_epoch": "2025-12-23T21:18:19.292256",
        "meta_mean_motion": 14.78971155,
        "meta_eccentricity": 0.00564864,
        "meta_inclination": 98.1447,
        "meta_ra_of_asc_node": 54.6965,
        "meta_arg_of_pericenter": 92.8898,
        "meta_mean_anomaly": 267.8779,
        "meta_ephemeris_type": 0,
        "meta_classification_type": "U",
        "meta_norad_cat_id": 41790,
        "meta_element_set_no": 999,
        "meta_rev_at_epoch": 7567,
        "meta_bstar": 0.00019690635,
        "meta_mean_motion_dot": 1.436e-05,
        "meta_mean_motion_ddot": 0,
        "tle_line1": "1 41790U 16059H   25357.88772329  .00001436  00000+0  19691-3 0  9992",
        "tle_line2": "2 41790  98.1447  54.6965 0056486  92.8898 267.8779 14.78971155 75673"
      },
      "geometry": {
        "type": "Point",
        "coordinates": [
          -121.50630986644185,
          22.23616587835391
        ]
      }
    },
    {
      "type": "Feature",
      "properties": {
        "norad_id": 41875,
        "name": "GOKTURK 1A",
        "group": "resource",
        "lat": -70.24418545685472,
        "lon": -85.97158643072811,
        "alt_km": 692.257547563363,
        "timestamp": "2025-12-24T07:45:05.856344+00:00",
        "meta_object_name": "GOKTURK 1A",
        "meta_object_id": "2016-073A",
        "meta_epoch": "2025-12-23T23:52:18.166080",
        "meta_mean_motion": 14.6279207,
        "meta_eccentricity": 0.00012934,
        "meta_inclination": 98.1429,
        "meta_ra_of_asc_node": 250.21,
        "meta_arg_of_pericenter": 81.4103,
        "meta_mean_anomaly": 278.7245,
        "meta_ephemeris_type": 0,
        "meta_classification_type": "U",
        "meta_norad_cat_id": 41875,
        "meta_element_set_no": 999,
        "meta_rev_at_epoch": 48321,
        "meta_bstar": 0.00013483765,
        "meta_mean_motion_dot": 6.41e-06,
        "meta_mean_motion_ddot": 0,
        "tle_line1": "1 41875U 16073A   25357.99465470  .00000641  00000+0  13484-3 0  9991",
        "tle_line2": "2 41875  98.1429 250.2100 0001293  81.4103 278.7245 14.62792070483213"
      },
      "geometry": {
        "type": "Point",
        "coordinates": [
          -85.97158643072811,
          -70.24418545685472
        ]
      }
    },
    {
      "type": "Feature",
      "properties": {
        "norad_id": 41877,
        "name": "RESOURCESAT-2A",
        "group": "resource",
        "lat": 61.249927061001635,
        "lon": 51.760083453600146,
        "alt_km": 814.8257399077147,
        "timestamp": "2025-12-24T07:45:05.856354+00:00",
        "meta_object_name": "RESOURCESAT-2A",
        "meta_object_id": "2016-074A",
        "meta_epoch": "2025-12-23T23:00:45.402912",
        "meta_mean_motion": 14.21604797,
        "meta_eccentricity": 0.0001582,
        "meta_inclination": 98.7743,
        "meta_ra_of_asc_node": 67.7491,
        "meta_arg_of_pericenter": 204.8509,
        "meta_mean_anomaly": 155.2592,
        "meta_ephemeris_type": 0,
        "meta_classification_type": "U",
        "meta_norad_cat_id": 41877,
        "meta_element_set_no": 999,
        "meta_rev_at_epoch": 46940,
        "meta_bstar": 0.00015773951,
        "meta_mean_motion_dot": 3.01e-06,
        "meta_mean_motion_ddot": 0,
        "tle_line1": "1 41877U 16074A   25357.95885883  .00000301  00000+0  15774-3 0  9991",
        "tle_line2": "2 41877  98.7743  67.7491 0001582 204.8509 155.2592 14.21604797469408"
      },
      "geometry": {
        "type": "Point",
        "coordinates": [
          51.760083453600146,
          61.249927061001635
        ]
      }
    }
  ]
}